NORAD_CAT_ID,OBJECT_NAME,OBJECT_TYPE,EPOCH,MEAN_MOTION,ECCENTRICITY,INCLINATION,RA_OF_ASC_NODE,ARG_OF_PERICENTER,MEAN_ANOMALY,BSTAR,MEAN_MOTION_DOT,MEAN_MOTION_DDOT,TLE_LINE0,TLE_LINE1,TLE_LINE2,SEMIMAJOR_AXIS,PERIOD,APOGEE,PERIGEE,DECAYED
56813.0,STARLINK-6056,PAYLOAD,2024-07-20 21:59:04,14.98332117,0.000335,69.9996,48.9585,273.6063,86.4713,0.00046952,5.514e-05,0.0,0 STARLINK-6056,1 56813U 23078AY  24202.91602481  .00005514  00000-0  46952-3 0  9998,2 56813  69.9996  48.9585 0003350 273.6063  86.4713 14.98332117 63298,6950.186,96.107,574.38,569.723,0.0
56813.0,STARLINK-6056,PAYLOAD,2024-07-21 12:24:17,14.98338654,0.0003005,70.0008,47.4446,274.3872,85.6944,6.3168e-05,6.61e-06,0.0,0 STARLINK-6056,1 56813U 23078AY  24203.51687085  .00000661  00000-0  63168-4 0  9995,2 56813  70.0008  47.4446 0003005 274.3872  85.6944 14.98338654 63646,6950.166,96.106,574.12,569.943,0.0
56813.0,STARLINK-6056,PAYLOAD,2024-07-21 14:00:25,14.9834006,0.0003413,69.9998,47.2751,271.707,88.3698,-5.5345e-05,-7.54e-06,0.0,0 STARLINK-6056,1 56813U 23078AY  24203.58363292 -.00000754  00000-0 -55345-4 0  9996,2 56813  69.9998  47.2751 0003413 271.7070  88.3698 14.98340060 63394,6950.162,96.106,574.399,569.655,0.0
56813.0,STARLINK-6056,PAYLOAD,2024-07-21 20:24:58,14.98333635,0.0002949,70.0005,46.6016,270.8963,89.1859,-2.7424e-05,-4.2e-06,0.0,0 STARLINK-6056,1 56813U 23078AY  24203.85067483 -.00000420  00000-0 -27424-4 0  9996,2 56813  70.0005  46.6016 0002949 270.8963  89.1859 14.98333635 63698,6950.182,96.107,574.096,569.997,0.0
56813.0,STARLINK-6056,PAYLOAD,2024-07-21 22:01:06,14.98333854,0.0002886,70.0006,46.4333,270.669,89.4138,-1.8878e-05,-3.18e-06,0.0,0 STARLINK-6056,1 56813U 23078AY  24203.91743425 -.00000318  00000-0 -18878-4 0  9999,2 56813  70.0006  46.4333 0002886 270.6690  89.4138 14.98333854 63443,6950.181,96.107,574.052,570.04,0.0
56813.0,STARLINK-6056,PAYLOAD,2024-07-22 12:26:18,14.98339808,0.0003277,70.0,44.9184,272.4259,87.6525,-9.9882e-05,-1.285e-05,0.0,0 STARLINK-6056,1 56813U 23078AY  24204.51826758 -.00001285  00000-0 -99882-4 0  9995,2 56813  70.0000  44.9184 0003277 272.4259  87.6525 14.98339808 63535,6950.163,96.106,574.305,569.75,0.0
56813.0,STARLINK-6056,PAYLOAD,2024-07-22 22:03:06,14.98341799,0.0003247,70.0002,43.9094,272.0363,88.0424,-8.4913e-05,-1.106e-05,0.0,0 STARLINK-6056,1 56813U 23078AY  24204.91882305 -.00001106  00000-0 -84913-4 0  9990,2 56813  70.0002  43.9094 0003247 272.0363  88.0424 14.98341799 63596,6950.156,96.106,574.278,569.765,0.0
56813.0,STARLINK-6056,PAYLOAD,2024-07-22 23:39:14,14.98343508,0.0003268,70.0,43.7404,272.325,87.7535,-7.039e-05,-9.33e-06,0.0,0 STARLINK-6056,1 56813U 23078AY  24204.98558111 -.00000933  00000-0 -70390-4 0  9993,2 56813  70.0000  43.7404 0003268 272.3250  87.7535 14.98343508 63609,6950.151,96.106,574.287,569.745,0.0
56813.0,STARLINK-6056,PAYLOAD,2024-07-23 23:41:15,14.98326311,0.0003037,70.0006,41.216,264.7842,95.297,-1.3963e-05,-2.6e-06,0.0,0 STARLINK-6056,1 56813U 23078AY  24205.98698890 -.00000260  00000-0 -13963-4 0  9999,2 56813  70.0006  41.2160 0003037 264.7842  95.2970 14.98326311 64019,6950.204,96.107,574.18,569.959,0.0
56813.0,STARLINK-6056,PAYLOAD,2024-07-24 22:07:08,14.98333843,0.000253,70.0013,38.8589,272.071,88.0159,6.8924e-05,7.3e-06,0.0,0 STARLINK-6056,1 56813U 23078AY  24206.92162291  .00000730  00000-0  68924-4 0  9992,2 56813  70.0013  38.8589 0002530 272.0710  88.0159 14.98333843 63899,6950.181,96.107,573.804,570.288,0.0
56813.0,STARLINK-6056,PAYLOAD,2024-07-25 22:09:09,14.98329954,0.0003157,70.0003,36.3337,271.2733,88.8064,-5.7247e-05,-7.76e-06,0.0,0 STARLINK-6056,1 56813U 23078AY  24207.92302383 -.00000776  00000-0 -57247-4 0  9999,2 56813  70.0003  36.3337 0003157 271.2733  88.8064 14.98329954 64043,6950.193,96.107,574.252,569.864,0.0
56813.0,STARLINK-6056,PAYLOAD,2024-07-26 06:09:49,14.98331583,0.0003213,69.999,35.4912,270.2429,89.8362,-6.4198e-06,-1.7e-06,0.0,0 STARLINK-6056,1 56813U 23078AY  24208.25682402 -.00000170  00000-0 -64198-5 0  9991,2 56813  69.9990  35.4912 0003213 270.2429  89.8362 14.98331583 64096,6950.188,96.107,574.286,569.82,0.0
56813.0,STARLINK-6056,PAYLOAD,2024-07-26 22:11:09,14.98332388,0.0003186,69.9976,33.8085,271.2299,88.8495,5.5628e-05,5.71e-06,0.0,0 STARLINK-6056,1 56813U 23078AY  24208.92442094  .00000571  00000-0  55628-4 0  9996,2 56813  69.9976  33.8085 0003186 271.2299  88.8495 14.98332388 64199,6950.186,96.107,574.265,569.836,0.0
56813.0,STARLINK-6056,PAYLOAD,2024-07-27 12:36:22,14.98326495,0.0003109,69.9962,32.293,270.9888,89.0915,1.4966e-05,8.5e-07,0.0,0 STARLINK-6056,1 56813U 23078AY  24209.52526558  .00000085  00000-0  14966-4 0  9991,2 56813  69.9962  32.2930 0003109 270.9888  89.0915 14.98326495 64542,6950.204,96.107,574.23,569.908,0.0
56813.0,STARLINK-6056,PAYLOAD,2024-07-27 22:13:11,14.98328378,0.0003152,70.0002,31.2834,271.4994,88.5804,4.1712e-05,4.05e-06,0.0,0 STARLINK-6056,1 56813U 23078AY  24209.92582440  .00000405  00000-0  41712-4 0  9992,2 56813  70.0002  31.2834 0003152 271.4994  88.5804 14.98328378 64345,6950.198,96.107,574.254,569.872,0.0
56813.0,STARLINK-6056,PAYLOAD,2024-07-28 12:38:23,14.98333383,0.0003095,70.0008,29.7682,271.6675,88.413,2.039e-05,1.5e-06,0.0,0 STARLINK-6056,1 56813U 23078AY  24210.52666176  .00000150  00000-0  20390-4 0  9995,2 56813  70.0008  29.7682 0003095 271.6675  88.4130 14.98333383 64699,6950.182,96.107,574.199,569.896,0.0
56813.0,STARLINK-6056,PAYLOAD,2024-07-28 22:15:11,14.98333278,0.0003103,70.0006,28.7582,271.8885,88.1918,3.9627e-05,3.8e-06,0.0,0 STARLINK-6056,1 56813U 23078AY  24210.92722081  .00000380  00000-0  39627-4 0  9995,2 56813  70.0006  28.7582 0003103 271.8885  88.1918 14.98333278 64492,6950.183,96.107,574.204,569.891,0.0
56813.0,STARLINK-6056,PAYLOAD,2024-07-29 11:04:16,14.98330501,0.0003151,70.0004,27.4122,267.3128,92.7671,2.9241e-05,2.56e-06,0.0,0 STARLINK-6056,1 56813U 23078AY  24211.46130183  .00000256  00000-0  29241-4 0  9994,2 56813  70.0004  27.4122 0003151 267.3128  92.7671 14.98330501 64571,6950.191,96.107,574.246,569.866,0.0
56813.0,STARLINK-6056,PAYLOAD,2024-07-29 20:41:04,14.98333404,0.0003116,70.0005,26.4023,267.1506,92.9296,5.9938e-05,6.22e-06,0.0,0 STARLINK-6056,1 56813U 23078AY  24211.86185874  .00000622  00000-0  59938-4 0  9998,2 56813  70.0005  26.4023 0003116 267.1506  92.9296 14.98333404 64895,6950.182,96.107,574.213,569.882,0.0
56813.0,STARLINK-6056,PAYLOAD,2024-07-29 22:17:12,14.98333856,0.0003115,70.0006,26.234,267.1414,92.9388,6.3551e-05,6.65e-06,0.0,0 STARLINK-6056,1 56813U 23078AY  24211.92861822  .00000665  00000-0  63551-4 0  9992,2 56813  70.0006  26.2340 0003115 267.1414  92.9388 14.98333856 64649,6950.181,96.107,574.211,569.881,0.0
56813.0,STARLINK-6056,PAYLOAD,2024-07-30 04:41:45,14.98329775,0.0003035,70.0008,25.5604,267.2718,92.8094,-1.1671e-05,-2.32e-06,0.0,0 STARLINK-6056,1 56813U 23078AY  24212.19566259 -.00000232  00000-0 -11671-4 0  9996,2 56813  70.0008  25.5604 0003035 267.2718  92.8094 14.98329775 64687,6950.194,96.107,574.168,569.949,0.0
56813.0,STARLINK-6056,PAYLOAD,2024-07-30 17:30:50,14.98324658,0.0002835,70.0014,24.2136,267.9664,92.117,-3.5586e-05,-5.17e-06,0.0,0 STARLINK-6056,1 56813U 23078AY  24212.72974757 -.00000517  00000-0 -35586-4 0  9998,2 56813  70.0014  24.2136 0002835 267.9664  92.1170 14.98324658 65026,6950.209,96.107,574.045,570.104,0.0
56813.0,STARLINK-6056,PAYLOAD,2024-07-31 14:20:34,14.98329703,0.0003058,70.0013,22.0262,267.4202,92.6607,-2.2434e-06,-1.2e-06,0.0,0 STARLINK-6056,1 56813U 23078AY  24213.59762512 -.00000120  00000-0 -22434-5 0  9997,2 56813  70.0013  22.0262 0003058 267.4202  92.6607 14.98329703 64892,6950.194,96.107,574.184,569.933,0.0
56813.0,STARLINK-6056,PAYLOAD,2024-07-31 20:45:06,14.98331503,0.0003139,70.001,21.3527,267.763,92.317,-3.2783e-06,-1.32e-06,0.0,0 STARLINK-6056,1 56813U 23078AY  24213.86466395 -.00000132  00000-0 -32783-5 0  9998,2 56813  70.0010  21.3527 0003139 267.7630  92.3170 14.98331503 65190,6950.188,96.107,574.235,569.872,0.0
56813.0,STARLINK-6056,PAYLOAD,2024-08-01 11:10:18,14.98332013,0.0003298,70.0004,19.8368,267.8804,92.1977,0.00017982,2.053e-05,0.0,0 STARLINK-6056,1 56813U 23078AY  24214.46549721  .00002053  00000-0  17982-3 0  9994,2 56813  70.0004  19.8368 0003298 267.8804  92.1977 14.98332013 65020,6950.187,96.107,574.344,569.759,0.0
56813.0,STARLINK-6056,PAYLOAD,2024-08-01 20:47:06,14.98342179,0.0003292,70.0006,18.8269,267.6997,92.3785,0.00020109,2.308e-05,0.0,0 STARLINK-6056,1 56813U 23078AY  24214.86604890  .00002308  00000-0  20109-3 0  9995,2 56813  70.0006  18.8269 0003292 267.6997  92.3785 14.98342179 65344,6950.155,96.106,574.308,569.732,0.0
56813.0,STARLINK-6056,PAYLOAD,2024-08-02 04:47:47,14.98331865,0.0003091,70.0016,17.9849,272.71,87.3705,7.2688e-05,7.74e-06,0.0,0 STARLINK-6056,1 56813U 23078AY  24215.19985916  .00000774  00000-0  72688-4 0  9998,2 56813  70.0016  17.9849 0003091 272.7100  87.3705 14.98331865 65390,6950.187,96.107,574.2,569.904,0.0
56813.0,STARLINK-6056,PAYLOAD,2024-08-02 14:24:36,14.98324764,0.0003255,70.0004,16.975,267.5559,92.5227,-1.4909e-05,-2.71e-06,0.0,0 STARLINK-6056,1 56813U 23078AY  24215.60042495 -.00000271  00000-0 -14909-4 0  9996,2 56813  70.0004  16.9750 0003255 267.5559  92.5227 14.98324764 65194,6950.209,96.107,574.336,569.812,0.0
56813.0,STARLINK-6056,PAYLOAD,2024-08-02 20:49:09,14.98325039,0.0003326,70.0011,16.303,272.039,88.0388,-1.3227e-05,-2.51e-06,0.0,0 STARLINK-6056,1 56813U 23078AY  24215.86746534 -.00000251  00000-0 -13227-4 0  9999,2 56813  70.0011  16.3030 0003326 272.0390  88.0388 14.98325039 65497,6950.208,96.107,574.385,569.762,0.0
56813.0,STARLINK-6056,PAYLOAD,2024-08-03 12:50:28,14.98337592,0.0003272,70.0007,14.6193,271.9291,88.1494,-3.2573e-05,-4.82e-06,0.0,0 STARLINK-6056,1 56813U 23078AY  24216.53505707 -.00000482  00000-0 -32573-4 0  9990,2 56813  70.0007  14.6193 0003272 271.9291  88.1494 14.98337592 65598,6950.169,96.107,574.309,569.76,0.0
